ORBCOMM FM103           
1 40091U 14040F   25217.51919319  .00000602  00000+0  16568-3 0  9994
2 40091  47.0050 144.8181 0001138 165.1490 194.9429 14.58228780571307
ORBCOMM FM114           
1 41179U 15081A   25217.60782174  .00000450  00000+0  13305-3 0  9992
2 41179  47.0034  53.4191 0002399 222.8485 137.2214 14.58272081511688
ORBCOMM FM119           
1 41180U 15081B   25217.59811465  .00000415  00000+0  12551-3 0  9991
2 41180  47.0019 322.7924 0001924 264.9364  95.1302 14.58204224512938
ORBCOMM FM105           
1 41181U 15081C   25217.65197300  .00000189  00000+0  98092-4 0  9997
2 41181  47.0030 332.2948 0002143 200.6252 159.4542 14.45252508507906
ORBCOMM FM110           
1 41182U 15081D   25217.60016604  .00000757  00000+0  19880-3 0  9998
2 41182  47.0023  52.9955 0002009  65.0788 295.0307 14.58269530511550
ORBCOMM FM118           
1 41183U 15081E   25217.56348982  .00000573  00000+0  15928-3 0  9996
2 41183  47.0046  53.4136 0002658  13.2863 346.8092 14.58258418511652
ORBCOMM FM112           
1 41184U 15081F   25217.63977455  .00000720  00000+0  19059-3 0  9991
2 41184  47.0004 321.7057 0002267 224.6457 135.4247 14.58332958512885
ORBCOMM FM113           
1 41185U 15081G   25217.61655222  .00000693  00000+0  18492-3 0  9994
2 41185  47.0021 322.1468 0002087 239.0102 121.0578 14.58300544512865
